GHGSAT-C1               
1 46278U 20061G   26186.30474220  .00044353  00000+0  32811-3 0  9997
2 46278  97.2094 272.0410 0000369 152.7804 207.3479 15.72835279326328
GHGSAT-C2               
1 47509U 21006DA  26186.10781216  .00010301  00000+0  27727-3 0  9995
2 47509  97.2134 233.0655 0006871 102.3469 257.8546 15.38020549302609
GHGSAT-C3               
1 52737U 22057F   26186.30268861  .00008680  00000+0  26132-3 0  9995
2 52737  97.6625 332.6419 0007049  65.3569 294.8407 15.34588703228317
GHGSAT-C5               
1 52744U 22057N   26186.27668201  .00008642  00000+0  26036-3 0  9992
2 52744  97.6711 334.2100 0007657  62.5669 297.6351 15.34565679228317
GHGSAT-C4               
1 52746U 22057Q   26186.25812534  .00008351  00000+0  25162-3 0  9998
2 52746  97.6551 331.4088 0007011  51.3845 308.8024 15.34575358228318
GHGSAT-C8               
1 56186U 23054J   26186.26412916  .00018283  00000+0  28879-3 0  9992
2 56186  97.2964  95.7996 0004393  35.5850 324.5696 15.53537086181249
GHGSAT-C6               
1 56204U 23054AC  26186.29461174  .00019345  00000+0  30564-3 0  9990
2 56204  97.3025  96.5255 0004606 356.7359   3.3863 15.53517572181263
GHGSAT-C7               
1 56209U 23054AH  26186.27239420  .00014614  00000+0  25952-3 0  9999
2 56209  97.2981  94.8764 0006068 347.6697  12.4405 15.50287333181193
GHGSAT-C12              
1 64529U 25135B   26185.75547778  .00005079  00000+0  23619-3 0  9998
2 64529  97.4767 300.4084 0006438 108.7315 251.4619 15.20396527 57496
GHGSAT-C13              
1 64548U 25135W   26185.74966957  .00010286  00000+0  46239-3 0  9991
2 64548  97.4795 300.9990 0002264  78.8504 281.2986 15.21319995 57526
