{"fetched_at":"2026-07-05T17:36:26.478Z","source":"https://celestrak.org/NORAD/elements/gp.php?NAME=GHGSAT&FORMAT=JSON","constellation":"ghgsat","records":[{"OBJECT_NAME":"GHGSAT-C1","OBJECT_ID":"2020-061G","EPOCH":"2026-07-05T07:18:49.726080","CLASSIFICATION_TYPE":"U","MEAN_MOTION":15.72835279,"ECCENTRICITY":0.00003691,"INCLINATION":97.2094,"RA_OF_ASC_NODE":272.041,"ARG_OF_PERICENTER":152.7804,"MEAN_ANOMALY":207.3479,"EPHEMERIS_TYPE":0,"NORAD_CAT_ID":46278,"ELEMENT_SET_NO":999,"REV_AT_EPOCH":32632,"BSTAR":0.00032811077,"MEAN_MOTION_DOT":0.00044353,"MEAN_MOTION_DDOT":0},{"OBJECT_NAME":"GHGSAT-C2","OBJECT_ID":"2021-006DA","EPOCH":"2026-07-05T02:35:14.970624","CLASSIFICATION_TYPE":"U","MEAN_MOTION":15.38020549,"ECCENTRICITY":0.00068714,"INCLINATION":97.2134,"RA_OF_ASC_NODE":233.0655,"ARG_OF_PERICENTER":102.3469,"MEAN_ANOMALY":257.8546,"EPHEMERIS_TYPE":0,"NORAD_CAT_ID":47509,"ELEMENT_SET_NO":999,"REV_AT_EPOCH":30260,"BSTAR":0.0002772679,"MEAN_MOTION_DOT":0.00010301,"MEAN_MOTION_DDOT":0},{"OBJECT_NAME":"GHGSAT-C3","OBJECT_ID":"2022-057F","EPOCH":"2026-07-05T07:15:52.295904","CLASSIFICATION_TYPE":"U","MEAN_MOTION":15.34588703,"ECCENTRICITY":0.00070494,"INCLINATION":97.6625,"RA_OF_ASC_NODE":332.6419,"ARG_OF_PERICENTER":65.3569,"MEAN_ANOMALY":294.8407,"EPHEMERIS_TYPE":0,"NORAD_CAT_ID":52737,"ELEMENT_SET_NO":999,"REV_AT_EPOCH":22831,"BSTAR":0.000261319,"MEAN_MOTION_DOT":0.0000868,"MEAN_MOTION_DDOT":0},{"OBJECT_NAME":"GHGSAT-C5","OBJECT_ID":"2022-057N","EPOCH":"2026-07-05T06:38:25.325664","CLASSIFICATION_TYPE":"U","MEAN_MOTION":15.34565679,"ECCENTRICITY":0.00076574,"INCLINATION":97.6711,"RA_OF_ASC_NODE":334.21,"ARG_OF_PERICENTER":62.5669,"MEAN_ANOMALY":297.6351,"EPHEMERIS_TYPE":0,"NORAD_CAT_ID":52744,"ELEMENT_SET_NO":999,"REV_AT_EPOCH":22831,"BSTAR":0.00026035623,"MEAN_MOTION_DOT":0.00008642,"MEAN_MOTION_DDOT":0},{"OBJECT_NAME":"GHGSAT-C4","OBJECT_ID":"2022-057Q","EPOCH":"2026-07-05T06:11:42.029376","CLASSIFICATION_TYPE":"U","MEAN_MOTION":15.34575358,"ECCENTRICITY":0.00070116,"INCLINATION":97.6551,"RA_OF_ASC_NODE":331.4088,"ARG_OF_PERICENTER":51.3845,"MEAN_ANOMALY":308.8024,"EPHEMERIS_TYPE":0,"NORAD_CAT_ID":52746,"ELEMENT_SET_NO":999,"REV_AT_EPOCH":22831,"BSTAR":0.00025162313,"MEAN_MOTION_DOT":0.00008351,"MEAN_MOTION_DDOT":0},{"OBJECT_NAME":"GHGSAT-C8","OBJECT_ID":"2023-054J","EPOCH":"2026-07-05T06:20:20.759424","CLASSIFICATION_TYPE":"U","MEAN_MOTION":15.53537086,"ECCENTRICITY":0.00043937,"INCLINATION":97.2964,"RA_OF_ASC_NODE":95.7996,"ARG_OF_PERICENTER":35.585,"MEAN_ANOMALY":324.5696,"EPHEMERIS_TYPE":0,"NORAD_CAT_ID":56186,"ELEMENT_SET_NO":999,"REV_AT_EPOCH":18124,"BSTAR":0.00028879332,"MEAN_MOTION_DOT":0.00018283,"MEAN_MOTION_DDOT":0},{"OBJECT_NAME":"GHGSAT-C6","OBJECT_ID":"2023-054AC","EPOCH":"2026-07-05T07:04:14.454336","CLASSIFICATION_TYPE":"U","MEAN_MOTION":15.53517572,"ECCENTRICITY":0.00046064,"INCLINATION":97.3025,"RA_OF_ASC_NODE":96.5255,"ARG_OF_PERICENTER":356.7359,"MEAN_ANOMALY":3.3863,"EPHEMERIS_TYPE":0,"NORAD_CAT_ID":56204,"ELEMENT_SET_NO":999,"REV_AT_EPOCH":18126,"BSTAR":0.00030564453,"MEAN_MOTION_DOT":0.00019345,"MEAN_MOTION_DDOT":0},{"OBJECT_NAME":"GHGSAT-C7","OBJECT_ID":"2023-054AH","EPOCH":"2026-07-05T06:32:14.858880","CLASSIFICATION_TYPE":"U","MEAN_MOTION":15.50287333,"ECCENTRICITY":0.00060686,"INCLINATION":97.2981,"RA_OF_ASC_NODE":94.8764,"ARG_OF_PERICENTER":347.6697,"MEAN_ANOMALY":12.4405,"EPHEMERIS_TYPE":0,"NORAD_CAT_ID":56209,"ELEMENT_SET_NO":999,"REV_AT_EPOCH":18119,"BSTAR":0.00025951785,"MEAN_MOTION_DOT":0.00014614,"MEAN_MOTION_DDOT":0},{"OBJECT_NAME":"GHGSAT-C12","OBJECT_ID":"2025-135B","EPOCH":"2026-07-04T18:07:53.280192","CLASSIFICATION_TYPE":"U","MEAN_MOTION":15.20396527,"ECCENTRICITY":0.00064382,"INCLINATION":97.4767,"RA_OF_ASC_NODE":300.4084,"ARG_OF_PERICENTER":108.7315,"MEAN_ANOMALY":251.4619,"EPHEMERIS_TYPE":0,"NORAD_CAT_ID":64529,"ELEMENT_SET_NO":999,"REV_AT_EPOCH":5749,"BSTAR":0.00023618664,"MEAN_MOTION_DOT":0.00005079,"MEAN_MOTION_DDOT":0},{"OBJECT_NAME":"GHGSAT-C13","OBJECT_ID":"2025-135W","EPOCH":"2026-07-04T17:59:31.450848","CLASSIFICATION_TYPE":"U","MEAN_MOTION":15.21319995,"ECCENTRICITY":0.00022641,"INCLINATION":97.4795,"RA_OF_ASC_NODE":300.999,"ARG_OF_PERICENTER":78.8504,"MEAN_ANOMALY":281.2986,"EPHEMERIS_TYPE":0,"NORAD_CAT_ID":64548,"ELEMENT_SET_NO":999,"REV_AT_EPOCH":5752,"BSTAR":0.00046239438,"MEAN_MOTION_DOT":0.00010286,"MEAN_MOTION_DDOT":0}]}
